SL-16 R/B               
1 25407U 98045B   26084.88937808 -.00000225  00000+0 -89582-4 0  9991
2 25407  71.0109 147.5091 0007833 342.6328  17.4526 14.16194960429397
ISS (ZARYA)             
1 25544U 98067A   26084.84151546  .00012012  00000+0  22938-3 0  9996
2 25544  51.6341 352.5134 0006235 232.7336 127.3084 15.48540672558833
CZ-4B R/B               
1 25732U 99025C   26084.96354910  .00000049  00000+0  44697-4 0  9997
2 25732  98.6594 128.8573 0036069 298.8871 129.5888 14.18268443390478
OKEAN-O                 
1 25860U 99039A   26084.87424364  .00000672  00000+0  94896-4 0  9993
2 25860  97.9409 144.5986 0000903  86.1742 273.9573 14.80360387436782
SL-16 R/B               
1 25861U 99039B   26084.90642485  .00000540  00000+0  75228-4 0  9996
2 25861  97.9931 143.9762 0014327 199.8065 160.2593 14.81752682439263
DELTA 2 R/B             
1 25876U 99041E   26084.44062418  .00000646  00000+0  14358-3 0  9999
2 25876  51.7606 238.3603 0502627  34.8879 328.3938 14.11872368365259
HELIOS 1B               
1 25977U 99064A   26084.99014579  .00001539  00000+0  17515-3 0  9991
2 25977  98.1673 347.7112 0001979  54.0518 306.0880 14.87759062687689
TERRA                   
1 25994U 99068A   26084.89919237  .00000429  00000+0  96450-4 0  9991
2 25994  97.9560 137.7120 0003496 117.4843  55.2411 14.61031271397449
SL-16 R/B               
1 26070U 00006B   26084.69708246  .00000254  00000+0  15334-3 0  9992
2 26070  71.0012  64.1756 0015920 164.8492 195.3111 14.15825151350820
TITAN 4B R/B            
1 26474U 00047B   26084.99515697  .00003535  00000+0  22313-3 0  9994
2 26474  67.9913 354.6564 0039743  16.3250 343.9169 15.09712159395378
ENVISAT                 
1 27386U 02009A   26084.87441164  .00000128  00000+0  55288-4 0  9994
2 27386  98.3754  38.0890 0001237  81.5071 298.8736 14.39042375261502
IDEFIX & ARIANE 42P R/B 
1 27422U 02021B   26084.85707259  .00000281  00000+0  12309-3 0  9993
2 27422  98.5888  23.2719 0012484 135.6267 224.5919 14.31036677246336
