CCSDS_OMM_VERS = 2.0
CREATION_DATE  = 
ORIGINATOR     = 

OBJECT_NAME    = SL-16 R/B
OBJECT_ID      = 1998-045B
CENTER_NAME    = EARTH
REF_FRAME      = TEME
TIME_SYSTEM    = UTC
MEAN_ELEMENT_THEORY = SGP/SGP4

EPOCH          = 2026-03-25T21:20:42.266112
MEAN_MOTION    = 14.16194960
ECCENTRICITY   = .00078332
INCLINATION    = 71.0109
RA_OF_ASC_NODE = 147.5091
ARG_OF_PERICENTER = 342.6328
MEAN_ANOMALY   = 17.4526

EPHEMERIS_TYPE = 0
CLASSIFICATION_TYPE = U
NORAD_CAT_ID   = 25407
ELEMENT_SET_NO = 999
REV_AT_EPOCH   = 42939
BSTAR          = -.89581919E-4
MEAN_MOTION_DOT = -.225E-5
MEAN_MOTION_DDOT = 0

CCSDS_OMM_VERS = 2.0
CREATION_DATE  = 
ORIGINATOR     = 

OBJECT_NAME    = ISS (ZARYA)
OBJECT_ID      = 1998-067A
CENTER_NAME    = EARTH
REF_FRAME      = TEME
TIME_SYSTEM    = UTC
MEAN_ELEMENT_THEORY = SGP/SGP4

EPOCH          = 2026-03-25T20:11:46.935744
MEAN_MOTION    = 15.48540672
ECCENTRICITY   = .0006235
INCLINATION    = 51.6341
RA_OF_ASC_NODE = 352.5134
ARG_OF_PERICENTER = 232.7336
MEAN_ANOMALY   = 127.3084

EPHEMERIS_TYPE = 0
CLASSIFICATION_TYPE = U
NORAD_CAT_ID   = 25544
ELEMENT_SET_NO = 999
REV_AT_EPOCH   = 55883
BSTAR          = .22937548E-3
MEAN_MOTION_DOT = .12012E-3
MEAN_MOTION_DDOT = 0

CCSDS_OMM_VERS = 2.0
CREATION_DATE  = 
ORIGINATOR     = 

OBJECT_NAME    = CZ-4B R/B
OBJECT_ID      = 1999-025C
CENTER_NAME    = EARTH
REF_FRAME      = TEME
TIME_SYSTEM    = UTC
MEAN_ELEMENT_THEORY = SGP/SGP4

EPOCH          = 2026-03-25T23:07:30.642240
MEAN_MOTION    = 14.18268443
ECCENTRICITY   = .00360692
INCLINATION    = 98.6594
RA_OF_ASC_NODE = 128.8573
ARG_OF_PERICENTER = 298.8871
MEAN_ANOMALY   = 129.5888

EPHEMERIS_TYPE = 0
CLASSIFICATION_TYPE = U
NORAD_CAT_ID   = 25732
ELEMENT_SET_NO = 999
REV_AT_EPOCH   = 39047
BSTAR          = .44697002E-4
MEAN_MOTION_DOT = .49E-6
MEAN_MOTION_DDOT = 0

CCSDS_OMM_VERS = 2.0
CREATION_DATE  = 
ORIGINATOR     = 

OBJECT_NAME    = OKEAN-O
OBJECT_ID      = 1999-039A
CENTER_NAME    = EARTH
REF_FRAME      = TEME
TIME_SYSTEM    = UTC
MEAN_ELEMENT_THEORY = SGP/SGP4

EPOCH          = 2026-03-25T20:58:54.650496
MEAN_MOTION    = 14.80360387
ECCENTRICITY   = .00009033
INCLINATION    = 97.9409
RA_OF_ASC_NODE = 144.5986
ARG_OF_PERICENTER = 86.1742
MEAN_ANOMALY   = 273.9573

EPHEMERIS_TYPE = 0
CLASSIFICATION_TYPE = U
NORAD_CAT_ID   = 25860
ELEMENT_SET_NO = 999
REV_AT_EPOCH   = 43678
BSTAR          = .94895984E-4
MEAN_MOTION_DOT = .672E-5
MEAN_MOTION_DDOT = 0

CCSDS_OMM_VERS = 2.0
CREATION_DATE  = 
ORIGINATOR     = 

OBJECT_NAME    = SL-16 R/B
OBJECT_ID      = 1999-039B
CENTER_NAME    = EARTH
REF_FRAME      = TEME
TIME_SYSTEM    = UTC
MEAN_ELEMENT_THEORY = SGP/SGP4

EPOCH          = 2026-03-25T21:45:15.107040
MEAN_MOTION    = 14.81752682
ECCENTRICITY   = .00143273
INCLINATION    = 97.9931
RA_OF_ASC_NODE = 143.9762
ARG_OF_PERICENTER = 199.8065
MEAN_ANOMALY   = 160.2593

EPHEMERIS_TYPE = 0
CLASSIFICATION_TYPE = U
NORAD_CAT_ID   = 25861
ELEMENT_SET_NO = 999
REV_AT_EPOCH   = 43926
BSTAR          = .75227874E-4
MEAN_MOTION_DOT = .54E-5
MEAN_MOTION_DDOT = 0

CCSDS_OMM_VERS = 2.0
CREATION_DATE  = 
ORIGINATOR     = 

OBJECT_NAME    = DELTA 2 R/B
OBJECT_ID      = 1999-041E
CENTER_NAME    = EARTH
REF_FRAME      = TEME
TIME_SYSTEM    = UTC
MEAN_ELEMENT_THEORY = SGP/SGP4

EPOCH          = 2026-03-25T10:34:29.929152
MEAN_MOTION    = 14.11872368
ECCENTRICITY   = .05026275
INCLINATION    = 51.7606
RA_OF_ASC_NODE = 238.3603
ARG_OF_PERICENTER = 34.8879
MEAN_ANOMALY   = 328.3938

EPHEMERIS_TYPE = 0
CLASSIFICATION_TYPE = U
NORAD_CAT_ID   = 25876
ELEMENT_SET_NO = 999
REV_AT_EPOCH   = 36525
BSTAR          = .1435829E-3
MEAN_MOTION_DOT = .646E-5
MEAN_MOTION_DDOT = 0

CCSDS_OMM_VERS = 2.0
CREATION_DATE  = 
ORIGINATOR     = 

OBJECT_NAME    = HELIOS 1B
OBJECT_ID      = 1999-064A
CENTER_NAME    = EARTH
REF_FRAME      = TEME
TIME_SYSTEM    = UTC
MEAN_ELEMENT_THEORY = SGP/SGP4

EPOCH          = 2026-03-25T23:45:48.596256
MEAN_MOTION    = 14.87759062
ECCENTRICITY   = .00019797
INCLINATION    = 98.1673
RA_OF_ASC_NODE = 347.7112
ARG_OF_PERICENTER = 54.0518
MEAN_ANOMALY   = 306.0880

EPHEMERIS_TYPE = 0
CLASSIFICATION_TYPE = U
NORAD_CAT_ID   = 25977
ELEMENT_SET_NO = 999
REV_AT_EPOCH   = 68768
BSTAR          = .17514957E-3
MEAN_MOTION_DOT = .1539E-4
MEAN_MOTION_DDOT = 0

CCSDS_OMM_VERS = 2.0
CREATION_DATE  = 
ORIGINATOR     = 

OBJECT_NAME    = TERRA
OBJECT_ID      = 1999-068A
CENTER_NAME    = EARTH
REF_FRAME      = TEME
TIME_SYSTEM    = UTC
MEAN_ELEMENT_THEORY = SGP/SGP4

EPOCH          = 2026-03-25T21:34:50.220768
MEAN_MOTION    = 14.61031271
ECCENTRICITY   = .00034962
INCLINATION    = 97.9560
RA_OF_ASC_NODE = 137.7120
ARG_OF_PERICENTER = 117.4843
MEAN_ANOMALY   = 55.2411

EPHEMERIS_TYPE = 0
CLASSIFICATION_TYPE = U
NORAD_CAT_ID   = 25994
ELEMENT_SET_NO = 999
REV_AT_EPOCH   = 39744
BSTAR          = .9644998E-4
MEAN_MOTION_DOT = .429E-5
MEAN_MOTION_DDOT = 0

CCSDS_OMM_VERS = 2.0
CREATION_DATE  = 
ORIGINATOR     = 

OBJECT_NAME    = SL-16 R/B
OBJECT_ID      = 2000-006B
CENTER_NAME    = EARTH
REF_FRAME      = TEME
TIME_SYSTEM    = UTC
MEAN_ELEMENT_THEORY = SGP/SGP4

EPOCH          = 2026-03-25T16:43:47.924544
MEAN_MOTION    = 14.15825151
ECCENTRICITY   = .00159205
INCLINATION    = 71.0012
RA_OF_ASC_NODE = 64.1756
ARG_OF_PERICENTER = 164.8492
MEAN_ANOMALY   = 195.3111

EPHEMERIS_TYPE = 0
CLASSIFICATION_TYPE = U
NORAD_CAT_ID   = 26070
ELEMENT_SET_NO = 999
REV_AT_EPOCH   = 35082
BSTAR          = .15334139E-3
MEAN_MOTION_DOT = .254E-5
MEAN_MOTION_DDOT = 0

CCSDS_OMM_VERS = 2.0
CREATION_DATE  = 
ORIGINATOR     = 

OBJECT_NAME    = TITAN 4B R/B
OBJECT_ID      = 2000-047B
CENTER_NAME    = EARTH
REF_FRAME      = TEME
TIME_SYSTEM    = UTC
MEAN_ELEMENT_THEORY = SGP/SGP4

EPOCH          = 2026-03-25T23:53:01.562208
MEAN_MOTION    = 15.09712159
ECCENTRICITY   = .00397434
INCLINATION    = 67.9913
RA_OF_ASC_NODE = 354.6564
ARG_OF_PERICENTER = 16.3250
MEAN_ANOMALY   = 343.9169

EPHEMERIS_TYPE = 0
CLASSIFICATION_TYPE = U
NORAD_CAT_ID   = 26474
ELEMENT_SET_NO = 999
REV_AT_EPOCH   = 39537
BSTAR          = .22313083E-3
MEAN_MOTION_DOT = .3535E-4
MEAN_MOTION_DDOT = 0

CCSDS_OMM_VERS = 2.0
CREATION_DATE  = 
ORIGINATOR     = 

OBJECT_NAME    = ENVISAT
OBJECT_ID      = 2002-009A
CENTER_NAME    = EARTH
REF_FRAME      = TEME
TIME_SYSTEM    = UTC
MEAN_ELEMENT_THEORY = SGP/SGP4

EPOCH          = 2026-03-25T20:59:09.165696
MEAN_MOTION    = 14.39042375
ECCENTRICITY   = .00012371
INCLINATION    = 98.3754
RA_OF_ASC_NODE = 38.0890
ARG_OF_PERICENTER = 81.5071
MEAN_ANOMALY   = 298.8736

EPHEMERIS_TYPE = 0
CLASSIFICATION_TYPE = U
NORAD_CAT_ID   = 27386
ELEMENT_SET_NO = 999
REV_AT_EPOCH   = 26150
BSTAR          = .55288495E-4
MEAN_MOTION_DOT = .128E-5
MEAN_MOTION_DDOT = 0

CCSDS_OMM_VERS = 2.0
CREATION_DATE  = 
ORIGINATOR     = 

OBJECT_NAME    = IDEFIX & ARIANE 42P R/B
OBJECT_ID      = 2002-021B
CENTER_NAME    = EARTH
REF_FRAME      = TEME
TIME_SYSTEM    = UTC
MEAN_ELEMENT_THEORY = SGP/SGP4

EPOCH          = 2026-03-25T20:34:11.071776
MEAN_MOTION    = 14.31036677
ECCENTRICITY   = .00124841
INCLINATION    = 98.5888
RA_OF_ASC_NODE = 23.2719
ARG_OF_PERICENTER = 135.6267
MEAN_ANOMALY   = 224.5919

EPHEMERIS_TYPE = 0
CLASSIFICATION_TYPE = U
NORAD_CAT_ID   = 27422
ELEMENT_SET_NO = 999
REV_AT_EPOCH   = 24633
BSTAR          = .12309281E-3
MEAN_MOTION_DOT = .281E-5
MEAN_MOTION_DDOT = 0

